start=new Date('2023-03-25T00:00:00.000Z').valueOf();
sats=[{"TLE_LINE1":"1 53272U 22086AG  23083.94119827  .00029740  00000-0  18760-2 0  9990","MEAN_ELEMENT_THEORY":"SGP4","ELEMENT_SET_NO":"999","MEAN_MOTION":"15.08895717","EPHEMERIS_TYPE":"0","CLASSIFICATION_TYPE":"U","CENTER_NAME":"EARTH","APOAPSIS":"540.198","RA_OF_ASC_NODE":"355.7885","FILE":"3870109","REV_AT_EPOCH":"3804","MEAN_MOTION_DDOT":"0.0000000000000","NORAD_CAT_ID":"53272","REF_FRAME":"TEME","COUNTRY_CODE":"US","SEMIMAJOR_AXIS":"6917.710","RCS_SIZE":"LARGE","OBJECT_ID":"2022-086AG","OBJECT_TYPE":"PAYLOAD","ECCENTRICITY":"0.00009010","EPOCH":"2023-03-24T22:35:19.530528","TIME_SYSTEM":"UTC","PERIOD":"95.434","MEAN_ANOMALY":"248.0520","TLE_LINE2":"2 53272  53.2163 355.7885 0000901 112.0568 248.0520 15.08895717 38042","PERIAPSIS":"538.952","MEAN_MOTION_DOT":"0.00029740","DECAY_DATE":null,"ARG_OF_PERICENTER":"112.0568","BSTAR":"0.00187600000000","OBJECT_NAME":"STARLINK-4122","GP_ID":"228823108","INCLINATION":"53.2163","SITE":"AFETR","LAUNCH_DATE":"2022-07-24"},{"TIME_SYSTEM":"UTC","MEAN_ANOMALY":"242.1011","TLE_LINE2":"2 53273  53.2161 355.8703 0001445 118.0127 242.1011 15.08863785 38031","PERIAPSIS":"538.673","MEAN_MOTION_DOT":"0.00026194","PERIOD":"95.436","DECAY_DATE":null,"ARG_OF_PERICENTER":"118.0127","SITE":"AFETR","LAUNCH_DATE":"2022-07-24","BSTAR":"0.00165670000000","GP_ID":"228823858","OBJECT_NAME":"STARLINK-4051","INCLINATION":"53.2161","MEAN_MOTION":"15.08863785","EPHEMERIS_TYPE":"0","TLE_LINE1":"1 53273U 22086AH  23083.92281120  .00026194  00000-0  16567-2 0  9998","MEAN_ELEMENT_THEORY":"SGP4","ELEMENT_SET_NO":"999","CENTER_NAME":"EARTH","CLASSIFICATION_TYPE":"U","REV_AT_EPOCH":"3803","MEAN_MOTION_DDOT":"0.0000000000000","NORAD_CAT_ID":"53273","REF_FRAME":"TEME","RA_OF_ASC_NODE":"355.8703","APOAPSIS":"540.672","FILE":"3870109","OBJECT_ID":"2022-086AH","OBJECT_TYPE":"PAYLOAD","ECCENTRICITY":"0.00014450","EPOCH":"2023-03-24T22:08:50.887680","COUNTRY_CODE":"US","RCS_SIZE":"LARGE","SEMIMAJOR_AXIS":"6917.808"},{"FILE":"3870109","APOAPSIS":"540.370","RA_OF_ASC_NODE":"355.8233","NORAD_CAT_ID":"53274","REF_FRAME":"TEME","MEAN_MOTION_DDOT":"0.0000000000000","REV_AT_EPOCH":"3804","SEMIMAJOR_AXIS":"6917.766","RCS_SIZE":"LARGE","COUNTRY_CODE":"US","ECCENTRICITY":"0.00010680","EPOCH":"2023-03-24T22:24:43.832160","OBJECT_ID":"2022-086AJ","OBJECT_TYPE":"PAYLOAD","MEAN_ELEMENT_THEORY":"SGP4","ELEMENT_SET_NO":"999","TLE_LINE1":"1 53274U 22086AJ  23083.93384065  .00018711  00000-0  11894-2 0  9996","EPHEMERIS_TYPE":"0","MEAN_MOTION":"15.08877447","CLASSIFICATION_TYPE":"U","CENTER_NAME":"EARTH","DECAY_DATE":null,"ARG_OF_PERICENTER":"105.1903","GP_ID":"228824110","INCLINATION":"53.2168","OBJECT_NAME":"STARLINK-4050","BSTAR":"0.00118940000000","SITE":"AFETR","LAUNCH_DATE":"2022-07-24","TIME_SYSTEM":"UTC","PERIOD":"95.435","TLE_LINE2":"2 53274  53.2168 355.8233 0001068 105.1903 254.9208 15.08877447 38047","PERIAPSIS":"538.892","MEAN_MOTION_DOT":"0.00018711","MEAN_ANOMALY":"254.9208"},{"CLASSIFICATION_TYPE":"U","CENTER_NAME":"EARTH","TLE_LINE1":"1 53275U 22086AK  23083.91913102  .00001129  00000-0  88977-4 0  9998","ELEMENT_SET_NO":"999","MEAN_ELEMENT_THEORY":"SGP4","MEAN_MOTION":"15.08846843","EPHEMERIS_TYPE":"0","COUNTRY_CODE":"US","SEMIMAJOR_AXIS":"6917.859","RCS_SIZE":"LARGE","OBJECT_ID":"2022-086AK","OBJECT_TYPE":"PAYLOAD","ECCENTRICITY":"0.00011910","EPOCH":"2023-03-24T22:03:32.920128","APOAPSIS":"540.548","RA_OF_ASC_NODE":"355.8868","FILE":"3870109","REV_AT_EPOCH":"3803","MEAN_MOTION_DDOT":"0.0000000000000","NORAD_CAT_ID":"53275","REF_FRAME":"TEME","PERIOD":"95.437","MEAN_ANOMALY":"270.1938","TLE_LINE2":"2 53275  53.2160 355.8868 0001191  89.9191 270.1938 15.08846843 38034","PERIAPSIS":"538.901","MEAN_MOTION_DOT":"0.00001129","TIME_SYSTEM":"UTC","BSTAR":"0.00008897700000","GP_ID":"228824853","OBJECT_NAME":"STARLINK-4179","INCLINATION":"53.2160","SITE":"AFETR","LAUNCH_DATE":"2022-07-24","DECAY_DATE":null,"ARG_OF_PERICENTER":"89.9191"},{"ARG_OF_PERICENTER":"62.5236","DECAY_DATE":null,"SITE":"AFETR","LAUNCH_DATE":"2022-07-24","BSTAR":"0.00089308000000","INCLINATION":"53.2165","GP_ID":"228823608","OBJECT_NAME":"STARLINK-4174","TIME_SYSTEM":"UTC","MEAN_ANOMALY":"297.5949","TLE_LINE2":"2 53276  53.2165 355.8550 0001904  62.5236 297.5949 15.08881217 38036","PERIAPSIS":"538.302","MEAN_MOTION_DOT":"0.00013970","PERIOD":"95.435","REV_AT_EPOCH":"3803","MEAN_MOTION_DDOT":"0.0000000000000","NORAD_CAT_ID":"53276","REF_FRAME":"TEME","APOAPSIS":"540.937","RA_OF_ASC_NODE":"355.8550","FILE":"3870109","OBJECT_ID":"2022-086AL","OBJECT_TYPE":"PAYLOAD","ECCENTRICITY":"0.00019040","EPOCH":"2023-03-24T22:14:08.132064","COUNTRY_CODE":"US","SEMIMAJOR_AXIS":"6917.754","RCS_SIZE":"LARGE","MEAN_MOTION":"15.08881217","EPHEMERIS_TYPE":"0","TLE_LINE1":"1 53276U 22086AL  23083.92648301  .00013970  00000-0  89308-3 0  9991","MEAN_ELEMENT_THEORY":"SGP4","ELEMENT_SET_NO":"999","CENTER_NAME":"EARTH","CLASSIFICATION_TYPE":"U"},{"CENTER_NAME":"EARTH","CLASSIFICATION_TYPE":"U","EPHEMERIS_TYPE":"0","MEAN_MOTION":"15.08859437","MEAN_ELEMENT_THEORY":"SGP4","ELEMENT_SET_NO":"999","TLE_LINE1":"1 53277U 22086AM  23083.91175916  .00000436  00000-0  45461-4 0  9994","ECCENTRICITY":"0.00012270","EPOCH":"2023-03-24T21:52:55.991424","OBJECT_ID":"2022-086AM","OBJECT_TYPE":"PAYLOAD","RCS_SIZE":"LARGE","SEMIMAJOR_AXIS":"6917.821","COUNTRY_CODE":"US","NORAD_CAT_ID":"53277","REF_FRAME":"TEME","MEAN_MOTION_DDOT":"0.0000000000000","REV_AT_EPOCH":"3803","FILE":"3870109","APOAPSIS":"540.535","RA_OF_ASC_NODE":"355.9462","TLE_LINE2":"2 53277  53.2174 355.9462 0001227  68.7315 291.3809 15.08859437 38030","MEAN_MOTION_DOT":"0.00000436","PERIAPSIS":"538.837","MEAN_ANOMALY":"291.3809","PERIOD":"95.436","TIME_SYSTEM":"UTC","SITE":"AFETR","LAUNCH_DATE":"2022-07-24","INCLINATION":"53.2174","GP_ID":"228823359","OBJECT_NAME":"STARLINK-4178","BSTAR":"0.00004546100000","DECAY_DATE":null,"ARG_OF_PERICENTER":"68.7315"},{"DECAY_DATE":null,"ARG_OF_PERICENTER":"97.9602","LAUNCH_DATE":"2022-07-24","SITE":"AFETR","BSTAR":"0.00172820000000","GP_ID":"228824610","INCLINATION":"53.2164","OBJECT_NAME":"STARLINK-4180","TIME_SYSTEM":"UTC","MEAN_ANOMALY":"262.1500","PERIAPSIS":"538.919","MEAN_MOTION_DOT":"0.00027362","TLE_LINE2":"2 53278  53.2164 355.9026 0000970  97.9602 262.1500 15.08890932 38032","PERIOD":"95.434","MEAN_MOTION_DDOT":"0.0000000000000","REV_AT_EPOCH":"3803","REF_FRAME":"TEME","NORAD_CAT_ID":"53278","RA_OF_ASC_NODE":"355.9026","APOAPSIS":"540.261","FILE":"3870109","OBJECT_TYPE":"PAYLOAD","OBJECT_ID":"2022-086AN","EPOCH":"2023-03-24T21:58:13.892448","ECCENTRICITY":"0.00009700","COUNTRY_CODE":"US","RCS_SIZE":"LARGE","SEMIMAJOR_AXIS":"6917.725","EPHEMERIS_TYPE":"0","MEAN_MOTION":"15.08890932","TLE_LINE1":"1 53278U 22086AN  23083.91543857  .00027362  00000-0  17282-2 0  9993","MEAN_ELEMENT_THEORY":"SGP4","ELEMENT_SET_NO":"999","CENTER_NAME":"EARTH","CLASSIFICATION_TYPE":"U"},{"TIME_SYSTEM":"UTC","MEAN_ANOMALY":"243.6905","TLE_LINE2":"2 53280  53.2174 310.6781 0001259 116.4216 243.6905 15.08888812 38678","MEAN_MOTION_DOT":"0.00005966","PERIAPSIS":"538.725","PERIOD":"95.434","ARG_OF_PERICENTER":"116.4216","DECAY_DATE":null,"SITE":"AFETR","LAUNCH_DATE":"2022-07-24","BSTAR":"0.00039207000000","GP_ID":"228824355","OBJECT_NAME":"STARLINK-4169","INCLINATION":"53.2174","MEAN_MOTION":"15.08888812","EPHEMERIS_TYPE":"0","TLE_LINE1":"1 53280U 22086AQ  23083.91126316  .00005966  00000-0  39207-3 0  9991","MEAN_ELEMENT_THEORY":"SGP4","ELEMENT_SET_NO":"999","CENTER_NAME":"EARTH","CLASSIFICATION_TYPE":"U","MEAN_MOTION_DDOT":"0.0000000000000","REV_AT_EPOCH":"3867","NORAD_CAT_ID":"53280","REF_FRAME":"TEME","APOAPSIS":"540.467","RA_OF_ASC_NODE":"310.6781","FILE":"3870109","OBJECT_ID":"2022-086AQ","OBJECT_TYPE":"PAYLOAD","ECCENTRICITY":"0.00012590","EPOCH":"2023-03-24T21:52:13.137024","COUNTRY_CODE":"US","SEMIMAJOR_AXIS":"6917.731","RCS_SIZE":"LARGE"},{"CENTER_NAME":"EARTH","CLASSIFICATION_TYPE":"U","MEAN_MOTION":"15.08865331","EPHEMERIS_TYPE":"0","TLE_LINE1":"1 53281U 22086AR  23083.90072085  .00005780  00000-0  38069-3 0  9993","MEAN_ELEMENT_THEORY":"SGP4","ELEMENT_SET_NO":"999","OBJECT_TYPE":"PAYLOAD","OBJECT_ID":"2022-086AR","EPOCH":"2023-03-24T21:37:02.281440","ECCENTRICITY":"0.00014740","COUNTRY_CODE":"US","SEMIMAJOR_AXIS":"6917.803","RCS_SIZE":"LARGE","MEAN_MOTION_DDOT":"0.0000000000000","REV_AT_EPOCH":"3803","REF_FRAME":"TEME","NORAD_CAT_ID":"53281","RA_OF_ASC_NODE":"355.9754","APOAPSIS":"540.688","FILE":"3870109","MEAN_ANOMALY":"250.7545","MEAN_MOTION_DOT":"0.00005780","PERIAPSIS":"538.648","TLE_LINE2":"2 53281  53.2195 355.9754 0001474 109.3607 250.7545 15.08865331 38038","PERIOD":"95.436","TIME_SYSTEM":"UTC","LAUNCH_DATE":"2022-07-24","SITE":"AFETR","BSTAR":"0.00038069000000","INCLINATION":"53.2195","GP_ID":"228823109","OBJECT_NAME":"STARLINK-4182","ARG_OF_PERICENTER":"109.3607","DECAY_DATE":null},{"APOAPSIS":"540.622","RA_OF_ASC_NODE":"355.9356","FILE":"3870109","REV_AT_EPOCH":"3803","MEAN_MOTION_DDOT":"0.0000000000000","NORAD_CAT_ID":"53282","REF_FRAME":"TEME","COUNTRY_CODE":"US","SEMIMAJOR_AXIS":"6917.855","RCS_SIZE":"LARGE","OBJECT_ID":"2022-086AS","OBJECT_TYPE":"PAYLOAD","ECCENTRICITY":"0.00013040","EPOCH":"2023-03-24T21:47:39.086592","TLE_LINE1":"1 53282U 22086AS  23083.90809128  .00001975  00000-0  14209-3 0  9992","ELEMENT_SET_NO":"999","MEAN_ELEMENT_THEORY":"SGP4","MEAN_MOTION":"15.08848387","EPHEMERIS_TYPE":"0","CLASSIFICATION_TYPE":"U","CENTER_NAME":"EARTH","DECAY_DATE":null,"ARG_OF_PERICENTER":"104.8109","BSTAR":"0.00014209000000","GP_ID":"228823859","OBJECT_NAME":"STARLINK-4164","INCLINATION":"53.2177","SITE":"AFETR","LAUNCH_DATE":"2022-07-24","TIME_SYSTEM":"UTC","PERIOD":"95.437","MEAN_ANOMALY":"255.3027","TLE_LINE2":"2 53282  53.2177 355.9356 0001304 104.8109 255.3027 15.08848387 38034","MEAN_MOTION_DOT":"0.00001975","PERIAPSIS":"538.818"}];
